STARLINK-1434           
1 45712U 20035BH  26068.24137979  .00054112  00000+0  20295-2 0  9995
2 45712  53.0547  22.1128 0005343  88.0400 272.1210 15.26724568319325
STARLINK-32804          
1 62846U 25019T   26068.44852348  .00022901  00000+0  83861-3 0  9995
2 62846  43.0083  90.3825 0002822 284.4195  75.6344 15.27599780 62213
